H1 CPF  1  DLR 2021 11 15 10  8192 technosat            
H2  1704205 6203    42829 2021 11 15 00 00 00 2021 11 22 00 00 00    60 1 1  0 0 0
H9
10 0 59538  64800.000000  0       5208416.578       4109195.422       2175487.899
10 0 59538  64860.000000  0       5363977.870       4115654.541       1744816.475
10 0 59538  64920.000000  0       5496994.276       4103571.414       1306766.415
10 0 59538  64980.000000  0       5606748.071       4073198.626        863190.694
10 0 59538  65040.000000  0       5692622.502       4024871.822        415965.415
10 0 59538  65100.000000  0       5754105.082       3959007.358        -33018.306
10 0 59538  65160.000000  0       5790790.384       3876099.583       -481862.447
10 0 59538  65220.000000  0       5802382.405       3776717.767       -928670.250
10 0 59538  65280.000000  0       5788696.352       3661502.637      -1371554.385
10 0 59538  65340.000000  0       5749659.921       3531162.610      -1808645.030
10 0 59538  65400.000000  0       5685314.008       3386469.716      -2238097.856
10 0 59538  65460.000000  0       5595812.907       3228255.264      -2658101.843
10 0 59538  65520.000000  0       5481424.016       3057405.255      -3066886.950
10 0 59538  65580.000000  0       5342526.992       2874855.573      -3462731.568
10 0 59538  65640.000000  0       5179612.451       2681587.005      -3843969.759
10 0 59538  65700.000000  0       4993280.058       2478620.043      -4208998.315
10 0 59538  65760.000000  0       4784236.020       2267009.491      -4556283.348
10 0 59538  65820.000000  0       4553290.238       2047839.046      -4884366.475
10 0 59538  65880.000000  0       4301353.037       1822215.832      -5191870.764
10 0 59538  65940.000000  0       4029431.376       1591264.882      -5477506.286
10 0 59538  66000.000000  0       3738624.713       1356123.622      -5740075.267
10 0 59538  66060.000000  0       3430120.445       1117936.361      -5978476.910
10 0 59538  66120.000000  0       3105188.905        877848.788      -6191711.751
10 0 59538  66180.000000  0       2765178.084        637002.568      -6378885.518
10 0 59538  66240.000000  0       2411508.035        396530.051      -6539212.644
10 0 59538  66300.000000  0       2045664.986        157549.069      -6672019.303
10 0 59538  66360.000000  0       1669195.255        -78842.128      -6776746.074
10 0 59538  66420.000000  0       1283698.806       -311569.844      -6852950.277
10 0 59538  66480.000000  0        890822.452       -539589.736      -6900307.720
10 0 59538  66540.000000  0        492252.960       -761891.393      -6918613.919
10 0 59538  66600.000000  0         89710.014       -977502.703      -6907784.957
10 0 59538  66660.000000  0       -315060.990      -1185494.021      -6867857.923
10 0 59538  66720.000000  0       -720296.334      -1384982.106      -6798990.968
10 0 59538  66780.000000  0      -1124221.546      -1575133.860      -6701462.865
10 0 59538  66840.000000  0      -1525059.030      -1755169.819      -6575672.096
10 0 59538  66900.000000  0      -1921035.800      -1924367.383      -6422135.447
10 0 59538  66960.000000  0      -2310391.181      -2082063.706      -6241486.129
10 0 59538  67020.000000  0      -2691384.533      -2227658.344      -6034471.541
10 0 59538  67080.000000  0      -3062303.014      -2360615.644      -5801950.598
10 0 59538  67140.000000  0      -3421469.370      -2480466.834      -5544890.588
10 0 59538  67200.000000  0      -3767249.695      -2586811.799      -5264363.508
10 0 59538  67260.000000  0      -4098061.048      -2679320.509      -4961541.897
10 0 59538  67320.000000  0      -4412378.875      -2757734.103      -4637694.228
10 0 59538  67380.000000  0      -4708744.287      -2821865.621      -4294179.891
10 0 59538  67440.000000  0      -4985771.127      -2871600.407      -3932443.728
10 0 59538  67500.000000  0      -5242152.785      -2906896.141      -3554010.142
10 0 59538  67560.000000  0      -5476668.728      -2927782.504      -3160476.791
10 0 59538  67620.000000  0      -5688190.679      -2934360.473      -2753507.891
10 0 59538  67680.000000  0      -5875688.386      -2926801.242      -2334827.146
10 0 59538  67740.000000  0      -6038234.952      -2905344.800      -1906210.399
10 0 59538  67800.000000  0      -6175011.764      -2870298.149      -1469477.987
10 0 59538  67860.000000  0      -6285312.911      -2822033.159      -1026486.781
10 0 59538  67920.000000  0      -6368549.019      -2760984.071       -579122.047
10 0 59538  67980.000000  0      -6424250.561      -2687644.685       -129289.168
10 0 59538  68040.000000  0      -6452070.619      -2602565.246        321094.793
10 0 59538  68100.000000  0      -6451787.031      -2506349.027        770109.639
10 0 59538  68160.000000  0      -6423303.881      -2399648.643       1215840.627
10 0 59538  68220.000000  0      -6366652.319      -2283162.106       1656387.042
10 0 59538  68280.000000  0      -6281990.700      -2157628.663       2089870.657
10 0 59538  68340.000000  0      -6169604.112      -2023824.435       2514444.009
10 0 59538  68400.000000  0      -6029903.376      -1882557.904       2928298.515
10 0 59538  68460.000000  0      -5863423.429      -1734665.275       3329672.505
10 0 59538  68520.000000  0      -5670820.954      -1581005.711       3716859.024
10 0 59538  68580.000000  0      -5452871.379      -1422456.465       4088213.244
10 0 59538  68640.000000  0      -5210465.343      -1259907.987       4442159.458
10 0 59538  68700.000000  0      -4944604.706      -1094259.051       4777197.721
10 0 59538  68760.000000  0      -4656398.077       -926411.916       5091910.152
10 0 59538  68820.000000  0      -4347055.877       -757267.528       5384966.859
10 0 59538  68880.000000  0      -4017884.927       -587720.764       5655131.514
10 0 59538  68940.000000  0      -3670282.527       -418655.749       5901266.413
10 0 59538  69000.000000  0      -3305730.213       -250941.313       6122337.058
10 0 59538  69060.000000  0      -2925787.104        -85426.593       6317416.285
10 0 59538  69120.000000  0      -2532082.968         77063.157       6485687.858
10 0 59538  69180.000000  0      -2126311.023        235730.548       6626449.611
10 0 59538  69240.000000  0      -1710220.483        389809.875       6739116.136
10 0 59538  69300.000000  0      -1285608.912        538570.752       6823220.936
10 0 59538  69360.000000  0       -854314.403        681321.507       6878418.114
10 0 59538  69420.000000  0       -418207.598        817412.320       6904483.597
10 0 59538  69480.000000  0         20816.420        946238.117       6901315.851
10 0 59538  69540.000000  0        460846.304       1067241.215       6868936.167
10 0 59538  69600.000000  0        899962.748       1179913.711       6807488.463
10 0 59538  69660.000000  0       1336246.806       1283799.587       6717238.559
10 0 59538  69720.000000  0       1767788.214       1378496.511       6598573.009
10 0 59538  69780.000000  0       2192693.679       1463657.342       6451997.461
10 0 59538  69840.000000  0       2609095.118       1538991.359       6278134.610
10 0 59538  69900.000000  0       3015157.913       1604265.197       6077721.690
10 0 59538  69960.000000  0       3409089.029       1659303.463       5851607.400
10 0 59538  70020.000000  0       3789144.912       1703989.044       5600748.393
10 0 59538  70080.000000  0       4153639.186       1738263.136       5326205.403
10 0 59538  70140.000000  0       4500950.187       1762124.989       5029138.965
10 0 59538  70200.000000  0       4829528.308       1775631.367       4710804.755
10 0 59538  70260.000000  0       5137903.162       1778895.700       4372548.464
10 0 59538  70320.000000  0       5424690.449       1772086.889       4015800.139
10 0 59538  70380.000000  0       5688598.268       1755427.855       3642068.035
10 0 59538  70440.000000  0       5928432.965       1729193.825       3252932.340
10 0 59538  70500.000000  0       6143104.763       1693710.293       2850038.647
10 0 59538  70560.000000  0       6331632.960       1649350.741       2435090.998
10 0 59538  70620.000000  0       6493150.618       1596534.119       2009844.624
10 0 59538  70680.000000  0       6626908.702       1535722.081       1576098.382
10 0 59538  70740.000000  0       6732279.599       1467415.993       1135687.041
10 0 59538  70800.000000  0       6808760.161       1392153.746        690473.468
10 0 59538  70860.000000  0       6855974.228       1310506.409        242340.628
10 0 59538  70920.000000  0       6873674.518       1223074.683       -206816.611
10 0 59538  70980.000000  0       6861743.802       1130485.213       -655099.677
10 0 59538  71040.000000  0       6820195.482       1033386.760      -1100614.432
10 0 59538  71100.000000  0       6749173.585        932446.266      -1541479.259
10 0 59538  71160.000000  0       6648952.219        828344.845      -1975833.106
10 0 59538  71220.000000  0       6519934.348        721773.737      -2401843.476
10 0 59538  71280.000000  0       6362649.945        613430.261      -2817714.210
10 0 59538  71340.000000  0       6177753.609        504013.763      -3221693.077
10 0 59538  71400.000000  0       5966021.613        394221.573      -3612079.181
10 0 59538  71460.000000  0       5728348.343        284745.007      -3987230.101
10 0 59538  71520.000000  0       5465742.203        176265.439      -4345568.700
10 0 59538  71580.000000  0       5179321.040         69450.463      -4685589.578
10 0 59538  71640.000000  0       4870307.141        -35049.816      -5005865.166
10 0 59538  71700.000000  0       4540021.842       -136606.352      -5305051.500
10 0 59538  71760.000000  0       4189879.712       -234614.586      -5581893.640
10 0 59538  71820.000000  0       3821382.377       -328497.722      -5835230.713
10 0 59538  71880.000000  0       3436111.969       -417709.846      -6064000.585
10 0 59538  71940.000000  0       3035724.186       -501738.825      -6267244.054
99
